CCSDS_OMM_VERS = 2.0
CREATION_DATE  = 
ORIGINATOR     = 

OBJECT_NAME    = QIANFAN-106
OBJECT_ID      = 2025-233R
CENTER_NAME    = EARTH
REF_FRAME      = TEME
TIME_SYSTEM    = UTC
MEAN_ELEMENT_THEORY = SGP/SGP4

EPOCH          = 2025-11-16T10:44:33.415008
MEAN_MOTION    = 14.19583798
ECCENTRICITY   = .0017361
INCLINATION    = 88.9961
RA_OF_ASC_NODE = 65.0591
ARG_OF_PERICENTER = 118.8989
MEAN_ANOMALY   = 241.3945

EPHEMERIS_TYPE = 0
CLASSIFICATION_TYPE = U
NORAD_CAT_ID   = 66048
ELEMENT_SET_NO = 999
REV_AT_EPOCH   = 429
BSTAR          = .45986E-3
MEAN_MOTION_DOT = .985E-5
MEAN_MOTION_DDOT = 0

CCSDS_OMM_VERS = 2.0
CREATION_DATE  = 
ORIGINATOR     = 

OBJECT_NAME    = QIANFAN-107
OBJECT_ID      = 2025-233S
CENTER_NAME    = EARTH
REF_FRAME      = TEME
TIME_SYSTEM    = UTC
MEAN_ELEMENT_THEORY = SGP/SGP4

EPOCH          = 2025-11-15T17:48:09.901728
MEAN_MOTION    = 14.21837904
ECCENTRICITY   = .0017588
INCLINATION    = 88.9977
RA_OF_ASC_NODE = 65.1466
ARG_OF_PERICENTER = 112.3496
MEAN_ANOMALY   = 247.9561

EPHEMERIS_TYPE = 0
CLASSIFICATION_TYPE = U
NORAD_CAT_ID   = 66049
ELEMENT_SET_NO = 999
REV_AT_EPOCH   = 419
BSTAR          = .49715E-3
MEAN_MOTION_DOT = .111E-4
MEAN_MOTION_DDOT = 0

CCSDS_OMM_VERS = 2.0
CREATION_DATE  = 
ORIGINATOR     = 

OBJECT_NAME    = QIANFAN-108
OBJECT_ID      = 2025-233T
CENTER_NAME    = EARTH
REF_FRAME      = TEME
TIME_SYSTEM    = UTC
MEAN_ELEMENT_THEORY = SGP/SGP4

EPOCH          = 2025-11-16T12:25:30.355680
MEAN_MOTION    = 14.20962760
ECCENTRICITY   = .0016932
INCLINATION    = 88.9963
RA_OF_ASC_NODE = 65.0514
ARG_OF_PERICENTER = 118.6508
MEAN_ANOMALY   = 241.6388

EPHEMERIS_TYPE = 0
CLASSIFICATION_TYPE = U
NORAD_CAT_ID   = 66050
ELEMENT_SET_NO = 999
REV_AT_EPOCH   = 430
BSTAR          = .31906E-3
MEAN_MOTION_DOT = .706E-5
MEAN_MOTION_DDOT = 0

CCSDS_OMM_VERS = 2.0
CREATION_DATE  = 
ORIGINATOR     = 

OBJECT_NAME    = CZ-6A R/B
OBJECT_ID      = 2025-233U
CENTER_NAME    = EARTH
REF_FRAME      = TEME
TIME_SYSTEM    = UTC
MEAN_ELEMENT_THEORY = SGP/SGP4

EPOCH          = 2025-11-16T11:51:37.689408
MEAN_MOTION    = 14.57028220
ECCENTRICITY   = .0084391
INCLINATION    = 89.0302
RA_OF_ASC_NODE = 64.9607
ARG_OF_PERICENTER = 16.9287
MEAN_ANOMALY   = 343.4708

EPHEMERIS_TYPE = 0
CLASSIFICATION_TYPE = U
NORAD_CAT_ID   = 66051
ELEMENT_SET_NO = 999
REV_AT_EPOCH   = 439
BSTAR          = .13118E-3
MEAN_MOTION_DOT = .637E-5
MEAN_MOTION_DDOT = 0

CCSDS_OMM_VERS = 2.0
CREATION_DATE  = 
ORIGINATOR     = 

OBJECT_NAME    = 2025-234A
OBJECT_ID      = 2025-234A
CENTER_NAME    = EARTH
REF_FRAME      = TEME
TIME_SYSTEM    = UTC
MEAN_ELEMENT_THEORY = SGP/SGP4

EPOCH          = 2025-11-16T10:57:17.592768
MEAN_MOTION    = 15.23478516
ECCENTRICITY   = .0014665
INCLINATION    = 97.4607
RA_OF_ASC_NODE = 25.9154
ARG_OF_PERICENTER = 186.4455
MEAN_ANOMALY   = 173.6596

EPHEMERIS_TYPE = 0
CLASSIFICATION_TYPE = U
NORAD_CAT_ID   = 66053
ELEMENT_SET_NO = 999
REV_AT_EPOCH   = 431
BSTAR          = .18284E-2
MEAN_MOTION_DOT = .4388E-3
MEAN_MOTION_DDOT = 0

CCSDS_OMM_VERS = 2.0
CREATION_DATE  = 
ORIGINATOR     = 

OBJECT_NAME    = 2025-234B
OBJECT_ID      = 2025-234B
CENTER_NAME    = EARTH
REF_FRAME      = TEME
TIME_SYSTEM    = UTC
MEAN_ELEMENT_THEORY = SGP/SGP4

EPOCH          = 2025-11-16T11:26:21.232896
MEAN_MOTION    = 15.21459484
ECCENTRICITY   = .0014927
INCLINATION    = 97.5034
RA_OF_ASC_NODE = 26.0419
ARG_OF_PERICENTER = 177.6638
MEAN_ANOMALY   = 182.4670

EPHEMERIS_TYPE = 0
CLASSIFICATION_TYPE = U
NORAD_CAT_ID   = 66054
ELEMENT_SET_NO = 999
REV_AT_EPOCH   = 431
BSTAR          = .5235E-3
MEAN_MOTION_DOT = .11738E-3
MEAN_MOTION_DDOT = 0

CCSDS_OMM_VERS = 2.0
CREATION_DATE  = 
ORIGINATOR     = 

OBJECT_NAME    = 2025-234C
OBJECT_ID      = 2025-234C
CENTER_NAME    = EARTH
REF_FRAME      = TEME
TIME_SYSTEM    = UTC
MEAN_ELEMENT_THEORY = SGP/SGP4

EPOCH          = 2025-11-16T11:23:00.104928
MEAN_MOTION    = 15.21576046
ECCENTRICITY   = .0015605
INCLINATION    = 97.4558
RA_OF_ASC_NODE = 25.8741
ARG_OF_PERICENTER = 179.3529
MEAN_ANOMALY   = 180.7729

EPHEMERIS_TYPE = 0
CLASSIFICATION_TYPE = U
NORAD_CAT_ID   = 66055
ELEMENT_SET_NO = 999
REV_AT_EPOCH   = 431
BSTAR          = .41582E-3
MEAN_MOTION_DOT = .9341E-4
MEAN_MOTION_DDOT = 0

CCSDS_OMM_VERS = 2.0
CREATION_DATE  = 
ORIGINATOR     = 

OBJECT_NAME    = 2025-234D
OBJECT_ID      = 2025-234D
CENTER_NAME    = EARTH
REF_FRAME      = TEME
TIME_SYSTEM    = UTC
MEAN_ELEMENT_THEORY = SGP/SGP4

EPOCH          = 2025-11-16T11:13:39.781920
MEAN_MOTION    = 15.22494353
ECCENTRICITY   = .0015215
INCLINATION    = 97.4537
RA_OF_ASC_NODE = 25.8744
ARG_OF_PERICENTER = 179.7667
MEAN_ANOMALY   = 180.3579

EPHEMERIS_TYPE = 0
CLASSIFICATION_TYPE = U
NORAD_CAT_ID   = 66056
ELEMENT_SET_NO = 999
REV_AT_EPOCH   = 430
BSTAR          = .13143E-2
MEAN_MOTION_DOT = .30572E-3
MEAN_MOTION_DDOT = 0

CCSDS_OMM_VERS = 2.0
CREATION_DATE  = 
ORIGINATOR     = 

OBJECT_NAME    = 2025-234E
OBJECT_ID      = 2025-234E
CENTER_NAME    = EARTH
REF_FRAME      = TEME
TIME_SYSTEM    = UTC
MEAN_ELEMENT_THEORY = SGP/SGP4

EPOCH          = 2025-11-16T10:28:08.741856
MEAN_MOTION    = 15.46164504
ECCENTRICITY   = .0007591
INCLINATION    = 97.4726
RA_OF_ASC_NODE = 26.3381
ARG_OF_PERICENTER = 241.2355
MEAN_ANOMALY   = 118.8132

EPHEMERIS_TYPE = 0
CLASSIFICATION_TYPE = U
NORAD_CAT_ID   = 66057
ELEMENT_SET_NO = 999
REV_AT_EPOCH   = 433
BSTAR          = .17097E-1
MEAN_MOTION_DOT = .912046E-2
MEAN_MOTION_DDOT = 0

CCSDS_OMM_VERS = 2.0
CREATION_DATE  = 
ORIGINATOR     = 

OBJECT_NAME    = STARLINK-35552
OBJECT_ID      = 2025-235A
CENTER_NAME    = EARTH
REF_FRAME      = TEME
TIME_SYSTEM    = UTC
MEAN_ELEMENT_THEORY = SGP/SGP4

EPOCH          = 2025-11-16T12:00:02.000160
MEAN_MOTION    = 15.57391982
ECCENTRICITY   = .0001307
INCLINATION    = 53.1601
RA_OF_ASC_NODE = 51.1257
ARG_OF_PERICENTER = 80.6753
MEAN_ANOMALY   = 133.5445

EPHEMERIS_TYPE = 0
CLASSIFICATION_TYPE = U
NORAD_CAT_ID   = 66058
ELEMENT_SET_NO = 999
REV_AT_EPOCH   = 565
BSTAR          = -.32357E-1
MEAN_MOTION_DOT = -.2143473E-1
MEAN_MOTION_DDOT = 0

CCSDS_OMM_VERS = 2.0
CREATION_DATE  = 
ORIGINATOR     = 

OBJECT_NAME    = STARLINK-35560
OBJECT_ID      = 2025-235B
CENTER_NAME    = EARTH
REF_FRAME      = TEME
TIME_SYSTEM    = UTC
MEAN_ELEMENT_THEORY = SGP/SGP4

EPOCH          = 2025-11-16T12:00:02.000160
MEAN_MOTION    = 15.43236200
ECCENTRICITY   = .0001467
INCLINATION    = 53.1605
RA_OF_ASC_NODE = 52.6132
ARG_OF_PERICENTER = 75.5323
MEAN_ANOMALY   = 123.6324

EPHEMERIS_TYPE = 0
CLASSIFICATION_TYPE = U
NORAD_CAT_ID   = 66059
ELEMENT_SET_NO = 999
REV_AT_EPOCH   = 565
BSTAR          = -.516E-1
MEAN_MOTION_DOT = -.2067306E-1
MEAN_MOTION_DDOT = 0

CCSDS_OMM_VERS = 2.0
CREATION_DATE  = 
ORIGINATOR     = 

OBJECT_NAME    = STARLINK-35558
OBJECT_ID      = 2025-235C
CENTER_NAME    = EARTH
REF_FRAME      = TEME
TIME_SYSTEM    = UTC
MEAN_ELEMENT_THEORY = SGP/SGP4

EPOCH          = 2025-11-16T12:00:02.000160
MEAN_MOTION    = 15.39577283
ECCENTRICITY   = .0001278
INCLINATION    = 53.1599
RA_OF_ASC_NODE = 52.8069
ARG_OF_PERICENTER = 81.3132
MEAN_ANOMALY   = 20.0580

EPHEMERIS_TYPE = 0
CLASSIFICATION_TYPE = U
NORAD_CAT_ID   = 66060
ELEMENT_SET_NO = 999
REV_AT_EPOCH   = 565
BSTAR          = .83969E-3
MEAN_MOTION_DOT = .33287E-3
MEAN_MOTION_DDOT = 0

CCSDS_OMM_VERS = 2.0
CREATION_DATE  = 
ORIGINATOR     = 

OBJECT_NAME    = STARLINK-35566
OBJECT_ID      = 2025-235D
CENTER_NAME    = EARTH
REF_FRAME      = TEME
TIME_SYSTEM    = UTC
MEAN_ELEMENT_THEORY = SGP/SGP4

EPOCH          = 2025-11-16T12:36:46.128096
MEAN_MOTION    = 15.49338879
ECCENTRICITY   = .0001395
INCLINATION    = 53.1624
RA_OF_ASC_NODE = 52.4545
ARG_OF_PERICENTER = 88.3885
MEAN_ANOMALY   = 271.7283

EPHEMERIS_TYPE = 0
CLASSIFICATION_TYPE = U
NORAD_CAT_ID   = 66061
ELEMENT_SET_NO = 999
REV_AT_EPOCH   = 557
BSTAR          = .18701E-2
MEAN_MOTION_DOT = .105081E-2
MEAN_MOTION_DDOT = 0

CCSDS_OMM_VERS = 2.0
CREATION_DATE  = 
ORIGINATOR     = 

OBJECT_NAME    = STARLINK-35421
OBJECT_ID      = 2025-235E
CENTER_NAME    = EARTH
REF_FRAME      = TEME
TIME_SYSTEM    = UTC
MEAN_ELEMENT_THEORY = SGP/SGP4

EPOCH          = 2025-11-16T12:00:02.000160
MEAN_MOTION    = 15.39712693
ECCENTRICITY   = .0001364
INCLINATION    = 53.1605
RA_OF_ASC_NODE = 52.7040
ARG_OF_PERICENTER = 67.1992
MEAN_ANOMALY   = 85.6493

EPHEMERIS_TYPE = 0
CLASSIFICATION_TYPE = U
NORAD_CAT_ID   = 66062
ELEMENT_SET_NO = 999
REV_AT_EPOCH   = 565
BSTAR          = -.57365E-2
MEAN_MOTION_DOT = -.223932E-2
MEAN_MOTION_DDOT = 0

CCSDS_OMM_VERS = 2.0
CREATION_DATE  = 
ORIGINATOR     = 

OBJECT_NAME    = STARLINK-35562
OBJECT_ID      = 2025-235F
CENTER_NAME    = EARTH
REF_FRAME      = TEME
TIME_SYSTEM    = UTC
MEAN_ELEMENT_THEORY = SGP/SGP4

EPOCH          = 2025-11-16T12:35:46.582944
MEAN_MOTION    = 15.49358237
ECCENTRICITY   = .0001339
INCLINATION    = 53.1620
RA_OF_ASC_NODE = 52.4492
ARG_OF_PERICENTER = 62.7253
MEAN_ANOMALY   = 297.3893

EPHEMERIS_TYPE = 0
CLASSIFICATION_TYPE = U
NORAD_CAT_ID   = 66063
ELEMENT_SET_NO = 999
REV_AT_EPOCH   = 557
BSTAR          = .26404E-2
MEAN_MOTION_DOT = .1495E-2
MEAN_MOTION_DDOT = 0

